STARLINK-6333
1 56521U 23065U   26092.83335647  .00075272  00000+0  44477-2 0  9993
2 56521  43.0003  78.4083 0001302 284.6468 131.8060 15.10574974  5765
